NORAD_CAT_ID,OBJECT_NAME,OBJECT_TYPE,EPOCH,MEAN_MOTION,ECCENTRICITY,INCLINATION,RA_OF_ASC_NODE,ARG_OF_PERICENTER,MEAN_ANOMALY,BSTAR,MEAN_MOTION_DOT,MEAN_MOTION_DDOT,TLE_LINE0,TLE_LINE1,TLE_LINE2,SEMIMAJOR_AXIS,PERIOD,APOGEE,PERIGEE,DECAYED
37853,RAX-2,PAYLOAD,2021-08-26 10:02:18,15.056366199999998,0.0163359,101.7095,185.3947,243.7169,114.71799999999999,6.8046e-05,1.161e-05,0.0,0 RAX-2,1 37853U 11061D   21238.41827268  .00001161  00000-0  68046-4 0  9996,2 37853 101.7095 185.3947 0163359 243.7169 114.7180 15.05636620536254,6927.689,95.641,662.7239999999998,436.384,0.0
37853,RAX-2,PAYLOAD,2021-08-27 09:57:43,15.05639519,0.0163361,101.7096,186.9033,240.75400000000002,117.7254,7.7739e-05,1.351e-05,0.0,0 RAX-2,1 37853U 11061D   21239.41508261  .00001351  00000-0  77739-4 0  9996,2 37853 101.7096 186.9033 0163361 240.7540 117.7254 15.05639519536885,6927.68,95.64,662.717,436.374,0.0
37853,RAX-2,PAYLOAD,2021-08-27 11:33:24,15.05639571,0.0163361,101.7096,187.0039,240.5568,117.9257,7.7214e-05,1.341e-05,0.0,0 RAX-2,1 37853U 11061D   21239.48153662  .00001341  00000-0  77214-4 0  9991,2 37853 101.7096 187.0039 0163361 240.5568 117.9257 15.05639571536413,6927.68,95.64,662.716,436.374,0.0
37853,RAX-2,PAYLOAD,2021-08-27 19:31:52,15.056406299999999,0.0163362,101.7097,187.5067,239.5711,118.9274,8.0358e-05,1.402e-05,0.0,0 RAX-2,1 37853U 11061D   21239.81380624  .00001402  00000-0  80358-4 0  9999,2 37853 101.7097 187.5067 0163362 239.5711 118.9274 15.05640630536462,6927.677,95.64,662.7139999999997,436.37,0.0
37853,RAX-2,PAYLOAD,2021-08-28 09:53:07,15.05648499,0.016335,101.7097,188.4119,237.7875,120.7411,0.00013377,2.449e-05,0.0,0 RAX-2,1 37853U 11061D   21240.41188835  .00002449  00000-0  13377-3 0  9995,2 37853 101.7097 188.4119 0163350 237.7875 120.7411 15.05648499536553,6927.653,95.64,662.681,436.355,0.0
37853,RAX-2,PAYLOAD,2021-08-28 11:28:48,15.05651751,0.0163341,101.7097,188.5124,237.5872,120.9449,0.00016283,3.018e-05,0.0,0 RAX-2,1 37853U 11061D   21240.47834193  .00003018  00000-0  16283-3 0  9998,2 37853 101.7097 188.5124 0163341 237.5872 120.9449 15.05651751537048,6927.643,95.64,662.665,436.351,0.0
37853,RAX-2,PAYLOAD,2021-08-28 19:27:16,15.0565125,0.0163345,101.7098,189.0153,236.604,121.9454,0.00014816,2.730000000000001e-05,0.0,0 RAX-2,1 37853U 11061D   21240.81061061  .00002730  00000-0  14816-3 0  9992,2 37853 101.7098 189.0153 0163345 236.6040 121.9454 15.05651250536611,6927.644,95.64,662.669,436.35,0.0
37853,RAX-2,PAYLOAD,2021-08-29 11:24:12,15.05655399,0.016335,101.7099,190.021,234.6258,123.9599,0.00016186,2.999e-05,0.0,0 RAX-2,1 37853U 11061D   21241.47514555  .00002999  00000-0  16186-3 0  9995,2 37853 101.7099 190.0210 0163350 234.6258 123.9599 15.05655399536714,6927.632,95.639,662.659,436.334,0.0
37853,RAX-2,PAYLOAD,2021-08-29 19:22:40,15.05657524,0.016335,101.7099,190.5238,233.6381,124.9664,0.00016714,3.103e-05,0.0,0 RAX-2,1 37853U 11061D   21241.80741235  .00003103  00000-0  16714-3 0  9994,2 37853 101.7099 190.5238 0163350 233.6381 124.9664 15.05657524537240,6927.625,95.639,662.653,436.327,0.0
37853,RAX-2,PAYLOAD,2021-08-30 11:19:36,15.05659024,0.016335099999999998,101.709,191.5292,231.7013,126.9414,0.00019776,3.703e-05,0.0,0 RAX-2,1 37853U 11061D   21242.47195066  .00003703  00000-0  19776-3 0  9990,2 37853 101.7090 191.5292 0163351 231.7013 126.9414 15.05659024537347,6927.62,95.639,662.6489999999999,436.32199999999995,0.0
37853,RAX-2,PAYLOAD,2021-08-30 19:18:04,15.05660547,0.0163341,101.7091,192.0322,230.7044,127.9587,0.00019071,3.565e-05,0.0,0 RAX-2,1 37853U 11061D   21242.80421740  .00003565  00000-0  19071-3 0  9992,2 37853 101.7091 192.0322 0163341 230.7044 127.9587 15.05660547536916,6927.616,95.639,662.637,436.324,0.0
37853,RAX-2,PAYLOAD,2021-08-31 03:16:32,15.05658786,0.0163322,101.7091,192.5352,229.7255,128.9582,0.00014527,2.675e-05,0.0,0 RAX-2,1 37853U 11061D   21243.13648534  .00002675  00000-0  14527-3 0  9993,2 37853 101.7091 192.5352 0163322 229.7255 128.9582 15.05658786536968,6927.621,95.639,662.6289999999998,436.343,0.0
37853,RAX-2,PAYLOAD,2021-08-31 11:15:00,15.05658451,0.0163336,101.7101,193.0384,228.7146,129.9905,0.00012239,2.227e-05,0.0,0 RAX-2,1 37853U 11061D   21243.46875178  .00002227  00000-0  12239-3 0  9996,2 37853 101.7101 193.0384 0163336 228.7146 129.9905 15.05658451537492,6927.6219999999985,95.639,662.64,436.334,0.0
37853,RAX-2,PAYLOAD,2021-08-31 19:13:28,15.05659224,0.016332299999999998,101.7093,193.541,227.7389,130.9875,0.0001091,1.966e-05,0.0,0 RAX-2,1 37853U 11061D   21243.80101918  .00001966  00000-0  10910-3 0  9991,2 37853 101.7093 193.5410 0163323 227.7389 130.9875 15.05659224537061,6927.62,95.639,662.6289999999998,436.341,0.0
37853,RAX-2,PAYLOAD,2021-09-01 11:10:23,15.05661012,0.0163342,101.7103,194.5471,225.7489,133.02200000000002,0.00010658,1.917e-05,0.0,0 RAX-2,1 37853U 11061D   21244.46555119  .00001917  00000-0  10658-3 0  9995,2 37853 101.7103 194.5471 0163342 225.7489 133.0220 15.05661012537168,6927.614000000001,95.639,662.6360000000002,436.32199999999995,0.0
37853,RAX-2,PAYLOAD,2021-09-01 17:33:09,15.05662086,0.0163346,101.7103,194.9494,224.9615,133.8274,0.00010463,1.879e-05,0.0,0 RAX-2,1 37853U 11061D   21244.73136354  .00001879  00000-0  10463-3 0  9992,2 37853 101.7103 194.9494 0163346 224.9615 133.8274 15.05662086537689,6927.611,95.639,662.6360000000002,436.316,0.0
37853,RAX-2,PAYLOAD,2021-09-01 19:08:51,15.05662355,0.0163345,101.7103,195.05,224.7647,134.0288,0.00010384,1.864e-05,0.0,0 RAX-2,1 37853U 11061D   21244.79781654  .00001864  00000-0  10384-3 0  9993,2 37853 101.7103 195.0500 0163345 224.7647 134.0288 15.05662355537217,6927.61,95.639,662.6339999999999,436.316,0.0
37853,RAX-2,PAYLOAD,2021-09-02 11:05:46,15.05663266,0.0163342,101.7105,196.0558,222.792,136.0482,8.590799999999999e-05,1.513e-05,0.0,0 RAX-2,1 37853U 11061D   21245.46234797  .00001513  00000-0  85908-4 0  9995,2 37853 101.7105 196.0558 0163342 222.7920 136.0482 15.05663266537313,6927.607,95.639,662.6289999999998,436.316,0.0
37853,RAX-2,PAYLOAD,2021-09-02 19:04:14,15.05664611,0.0163344,101.7105,196.5586,221.8063,137.0577,8.3845e-05,1.472e-05,0.0,0 RAX-2,1 37853U 11061D   21245.79461276  .00001472  00000-0  83845-4 0  9997,2 37853 101.7105 196.5586 0163344 221.8063 137.0577 15.05664611537848,6927.603,95.639,662.627,436.31,0.0
37853,RAX-2,PAYLOAD,2021-09-03 11:01:09,15.05665727,0.016334,101.7106,197.5645,219.8332,139.0798,7.0452e-05,1.21e-05,0.0,0 RAX-2,1 37853U 11061D   21246.45914329  .00001210  00000-0  70452-4 0  9993,2 37853 101.7106 197.5645 0163340 219.8332 139.0798 15.05665727537462,6927.6,95.639,662.62,436.309,0.0
37853,RAX-2,PAYLOAD,2021-09-03 15:48:14,15.05666221,0.0163343,101.7106,197.8662,219.2395,139.6885,6.8086e-05,1.164e-05,0.0,0 RAX-2,1 37853U 11061D   21246.65850221  .00001164  00000-0  68086-4 0  9993,2 37853 101.7106 197.8662 0163343 219.2395 139.6885 15.05666221537496,6927.598000000001,95.639,662.6210000000002,436.306,0.0
37853,RAX-2,PAYLOAD,2021-09-03 20:35:19,15.05667024,0.0163347,101.7106,198.168,218.6478,140.2953,6.743600000000001e-05,1.151e-05,0.0,0 RAX-2,1 37853U 11061D   21246.85786069  .00001151  00000-0  67436-4 0  9997,2 37853 101.7106 198.1680 0163347 218.6478 140.2953 15.05667024538003,6927.596,95.639,662.6210000000002,436.301,0.0
37853,RAX-2,PAYLOAD,2021-09-04 07:45:09,15.05667911,0.0163339,101.7107,198.872,217.2659,141.713,6.210100000000001e-05,1.047e-05,0.0,0 RAX-2,1 37853U 11061D   21247.32303184  .00001047  00000-0  62101-4 0  9991,2 37853 101.7107 198.8720 0163339 217.2659 141.7130 15.05667911537594,6927.593000000003,95.639,662.613,436.30400000000003,0.0
37853,RAX-2,PAYLOAD,2021-09-05 07:40:32,15.05670202,0.0163334,101.7108,200.3808,214.30700000000002,144.7508,5.618800000000001e-05,9.31e-06,0.0,0 RAX-2,1 37853U 11061D   21248.31982589  .00000931  00000-0  56188-4 0  9992,2 37853 101.7108 200.3808 0163334 214.3070 144.7508 15.05670202538221,6927.5859999999975,95.63799999999999,662.602,436.3,0.0
37853,RAX-2,PAYLOAD,2021-09-05 14:03:19,15.05671062,0.016333,101.7108,200.7831,213.5186,145.5607,5.7348999999999996e-05,9.54e-06,0.0,0 RAX-2,1 37853U 11061D   21248.58563731  .00000954  00000-0  57349-4 0  9990,2 37853 101.7108 200.7831 0163330 213.5186 145.5607 15.05671062537780,6927.584,95.63799999999999,662.597,436.3,0.0
37853,RAX-2,PAYLOAD,2021-09-06 07:35:55,15.05672583,0.0163328,101.7109,201.8895,211.3471,147.7926,5.4804e-05,9.04e-06,0.0,0 RAX-2,1 37853U 11061D   21249.31661914  .00000904  00000-0  54804-4 0  9992,2 37853 101.7109 201.8895 0163328 211.3471 147.7926 15.05672583537892,6927.579000000002,95.63799999999999,662.591,436.29699999999997,0.0
37853,RAX-2,PAYLOAD,2021-09-06 20:21:28,15.05673752,0.0163326,101.711,202.6941,209.7714,149.4129,5.3773e-05,8.84e-06,0.0,0 RAX-2,1 37853U 11061D   21249.84824170  .00000884  00000-0  53773-4 0  9996,2 37853 101.7110 202.6941 0163326 209.7714 149.4129 15.05673752538450,6927.575,95.63799999999999,662.586,436.295,0.0
37853,RAX-2,PAYLOAD,2021-09-07 10:42:41,15.05675306,0.0163325,101.7111,203.5994,207.9945,151.241,5.6745e-05,9.43e-06,0.0,0 RAX-2,1 37853U 11061D   21250.44631718  .00000943  00000-0  56745-4 0  9996,2 37853 101.7111 203.5994 0163325 207.9945 151.2410 15.05675306538062,6927.571,95.63799999999999,662.58,436.291,0.0
37853,RAX-2,PAYLOAD,2021-09-07 17:05:27,15.05676258,0.016332399999999997,101.7111,204.0018,207.2074,152.0511,6.0175e-05,1.01e-05,0.0,0 RAX-2,1 37853U 11061D   21250.71212817  .00001010  00000-0  60175-4 0  9999,2 37853 101.7111 204.0018 0163324 207.2074 152.0511 15.05676258538103,6927.568,95.63799999999999,662.576,436.289,0.0
37853,RAX-2,PAYLOAD,2021-09-08 07:26:41,15.05678563,0.016332399999999997,101.7112,204.907,205.4301,153.881,6.9779e-05,1.198e-05,0.0,0 RAX-2,1 37853U 11061D   21251.31020284  .00001198  00000-0  69779-4 0  9997,2 37853 101.7112 204.9070 0163324 205.4301 153.8810 15.05678563538678,6927.561,95.63799999999999,662.569,436.282,0.0
